NORAD_CAT_ID,OBJECT_NAME,OBJECT_TYPE,EPOCH,MEAN_MOTION,ECCENTRICITY,INCLINATION,RA_OF_ASC_NODE,ARG_OF_PERICENTER,MEAN_ANOMALY,BSTAR,MEAN_MOTION_DOT,MEAN_MOTION_DDOT,TLE_LINE0,TLE_LINE1,TLE_LINE2,SEMIMAJOR_AXIS,PERIOD,APOGEE,PERIGEE,DECAYED
53868.0,STARLINK-4789,PAYLOAD,2024-08-04 02:34:06,15.08858765,0.0001226,53.2184,359.348,73.6956,286.4171,0.00019043,2.746e-05,0.0,0 STARLINK-4789,1 53868U 22114BC  24217.10701667  .00002746  00000-0  19043-3 0  9993,2 53868  53.2184 359.3480 0001226  73.6956 286.4171 15.08858765104900,6917.823,95.436,540.536,538.84,0.0
53868.0,STARLINK-4789,PAYLOAD,2024-08-04 13:41:49,15.08826891,0.0001525,53.2195,357.2701,91.3589,268.7577,0.00015551,2.187e-05,0.0,0 STARLINK-4789,1 53868U 22114BC  24217.57071702  .00002187  00000-0  15551-3 0  9993,2 53868  53.2195 357.2701 0001525  91.3589 268.7577 15.08826891105512,6917.92,95.438,540.84,538.73,0.0
53868.0,STARLINK-4789,PAYLOAD,2024-08-04 18:27:58,15.08843718,0.0001546,53.2193,356.3753,78.7538,281.3628,0.00033462,5.042e-05,0.0,0 STARLINK-4789,1 53868U 22114BC  24217.76943043  .00005042  00000-0  33462-3 0  9994,2 53868  53.2193 356.3753 0001546  78.7538 281.3628 15.08843718105002,6917.869,95.437,540.804,538.665,0.0
53868.0,STARLINK-4789,PAYLOAD,2024-08-05 02:24:53,15.08859734,0.000137,53.2182,354.8879,82.8273,277.2875,0.00039913,6.073e-05,0.0,0 STARLINK-4789,1 53868U 22114BC  24218.10062031  .00006073  00000-0  39913-3 0  9994,2 53868  53.2182 354.8879 0001370  82.8273 277.2875 15.08859734105057,6917.82,95.436,540.633,538.737,0.0
53868.0,STARLINK-4789,PAYLOAD,2024-08-05 16:43:22,15.08832432,0.0001391,53.2183,352.2082,88.2811,271.834,-0.00013232,-2.393e-05,0.0,0 STARLINK-4789,1 53868U 22114BC  24218.69679208 -.00002393  00000-0 -13232-3 0  9997,2 53868  53.2183 352.2082 0001391  88.2811 271.8340 15.08832432105140,6917.904,95.438,540.731,538.806,0.0
53868.0,STARLINK-4789,PAYLOAD,2024-08-06 02:15:41,15.0884751,0.0001411,53.2179,350.4279,81.5152,278.6,0.00017445,2.49e-05,0.0,0 STARLINK-4789,1 53868U 22114BC  24219.09422655  .00002490  00000-0  17445-3 0  9990,2 53868  53.2179 350.4279 0001411  81.5152 278.6000 15.08847510105208,6917.857,95.437,540.699,538.746,0.0
53868.0,STARLINK-4789,PAYLOAD,2024-08-06 08:37:14,15.08825352,0.0001786,53.2179,349.2365,86.76,273.3596,-0.00016829,-2.964e-05,0.0,0 STARLINK-4789,1 53868U 22114BC  24219.35919715 -.00002964  00000-0 -16829-3 0  9990,2 53868  53.2179 349.2365 0001786  86.7600 273.3596 15.08825352105246,6917.925,95.438,541.026,538.555,0.0
53868.0,STARLINK-4789,PAYLOAD,2024-08-06 14:58:47,15.08828778,0.0001338,53.2167,348.0484,85.4802,274.6343,3.11e-06,-2.38e-06,0.0,0 STARLINK-4789,1 53868U 22114BC  24219.62415864 -.00000238  00000-0  31100-5 0  9998,2 53868  53.2167 348.0484 0001338  85.4802 274.6343 15.08828778105828,6917.915,95.438,540.705,538.854,0.0
53868.0,STARLINK-4789,PAYLOAD,2024-08-07 11:38:47,15.08849867,0.0001521,53.2187,344.1819,97.4221,262.6944,0.00048566,7.452e-05,0.0,0 STARLINK-4789,1 53868U 22114BC  24220.48527387  .00007452  00000-0  48566-3 0  9994,2 53868  53.2187 344.1819 0001521  97.4221 262.6944 15.08849867105412,6917.85,95.437,540.767,538.663,0.0
53868.0,STARLINK-4789,PAYLOAD,2024-08-08 13:04:57,15.08842373,0.0001188,53.2179,339.4171,104.564,255.5484,0.0002187,3.195e-05,0.0,0 STARLINK-4789,1 53868U 22114BC  24221.54511314  .00003195  00000-0  21870-3 0  9994,2 53868  53.2179 339.4171 0001188 104.5640 255.5484 15.08842373106118,6917.873,95.437,540.56,538.916,0.0
53868.0,STARLINK-4789,PAYLOAD,2024-08-08 14:40:20,15.08842984,0.0001358,53.2186,339.1232,104.5089,255.6054,9.8482e-05,1.28e-05,0.0,0 STARLINK-4789,1 53868U 22114BC  24221.61135295  .00001280  00000-0  98482-4 0  9999,2 53868  53.2186 339.1232 0001358 104.5089 255.6054 15.08842984105589,6917.871,95.437,540.676,538.797,0.0
53868.0,STARLINK-4789,PAYLOAD,2024-08-09 14:31:08,15.08836661,0.0001274,53.2186,334.6703,95.1728,264.9409,-5.3979e-05,-1.147e-05,0.0,0 STARLINK-4789,1 53868U 22114BC  24222.60495573 -.00001147  00000-0 -53979-4 0  9993,2 53868  53.2186 334.6703 0001274  95.1728 264.9409 15.08836661106273,6917.891,95.438,540.637,538.874,0.0
53868.0,STARLINK-4789,PAYLOAD,2024-08-10 14:21:55,15.08837863,0.0001146,53.2175,330.2078,98.205,261.9072,0.00015349,2.156e-05,0.0,0 STARLINK-4789,1 53868U 22114BC  24223.59855786  .00002156  00000-0  15349-3 0  9995,2 53868  53.2175 330.2078 0001146  98.2050 261.9072 15.08837863106423,6917.887,95.438,540.545,538.959,0.0
53868.0,STARLINK-4789,PAYLOAD,2024-08-10 23:54:12,15.08863282,0.0001123,53.2174,328.4227,96.4994,263.6126,0.00042651,6.511e-05,0.0,0 STARLINK-4789,1 53868U 22114BC  24223.99598010  .00006511  00000-0  42651-3 0  9998,2 53868  53.2174 328.4227 0001123  96.4994 263.6126 15.08863282105948,6917.809,95.436,540.451,538.897,0.0
53868.0,STARLINK-4789,PAYLOAD,2024-08-11 07:51:10,15.08822901,0.0002045,53.218,326.9373,97.5193,262.6031,-6.4877e-05,-1.32e-05,0.0,0 STARLINK-4789,1 53868U 22114BC  24224.32720480 -.00001320  00000-0 -64877-4 0  9994,2 53868  53.2180 326.9373 0002045  97.5193 262.6031 15.08822901105999,6917.933,95.439,541.212,538.383,0.0
53868.0,STARLINK-4789,PAYLOAD,2024-08-11 23:45:00,15.08850113,0.0001289,53.2158,323.9589,94.2616,265.8523,0.00019642,2.84e-05,0.0,0 STARLINK-4789,1 53868U 22114BC  24224.98958917  .00002840  00000-0  19642-3 0  9999,2 53868  53.2158 323.9589 0001289  94.2616 265.8523 15.08850113106092,6917.849,95.437,540.606,538.823,0.0
53868.0,STARLINK-4789,PAYLOAD,2024-08-12 06:06:33,15.08839754,0.0002594,53.2171,322.7765,94.1496,265.9792,0.00011295,1.51e-05,0.0,0 STARLINK-4789,1 53868U 22114BC  24225.25455864  .00001510  00000-0  11295-3 0  9992,2 53868  53.2171 322.7765 0002594  94.1496 265.9792 15.08839754106137,6917.881,95.438,541.541,537.952,0.0
53868.0,STARLINK-4789,PAYLOAD,2024-08-13 05:57:18,15.08871534,0.0002786,53.2058,318.3099,82.8493,277.2815,0.00057812,8.933e-05,0.0,0 STARLINK-4789,1 53868U 22114BC  24226.24813296  .00008933  00000-0  57812-3 0  9990,2 53868  53.2058 318.3099 0002786  82.8493 277.2815 15.08871534106286,6917.784,95.436,541.576,537.722,0.0
53868.0,STARLINK-4789,PAYLOAD,2024-08-13 12:18:51,15.08850472,0.0002343,53.2135,317.1217,96.3544,263.7715,7.7994e-05,9.53e-06,0.0,0 STARLINK-4789,1 53868U 22114BC  24226.51309964  .00000953  00000-0  77994-4 0  9990,2 53868  53.2135 317.1217 0002343  96.3544 263.7715 15.08850472106329,6917.848,95.437,541.334,538.093,0.0
53868.0,STARLINK-4789,PAYLOAD,2024-08-13 15:29:38,15.08842148,6e-05,53.2137,316.5259,126.1363,233.9684,-0.00013141,-2.378e-05,0.0,0 STARLINK-4789,1 53868U 22114BC  24226.64557873 -.00002378  00000-0 -13141-3 0  9996,2 53868  53.2137 316.5259 0000600 126.1363 233.9684 15.08842148106342,6917.874,95.437,540.154,539.324,0.0
53868.0,STARLINK-4789,PAYLOAD,2024-08-13 23:26:35,15.08815077,0.0002519,53.2043,315.0393,99.8483,260.2794,-0.0007132,-0.00011614,0.0,0 STARLINK-4789,1 53868U 22114BC  24226.97679539 -.00011614  00000-0 -71320-3 0  9992,2 53868  53.2043 315.0393 0002519  99.8483 260.2794 15.08815077106392,6917.957,95.439,541.564,538.079,0.0
53868.0,STARLINK-4789,PAYLOAD,2024-08-14 12:09:40,15.08826038,0.000125,53.2147,312.6613,96.7071,263.4063,-0.00040942,-6.795e-05,0.0,0 STARLINK-4789,1 53868U 22114BC  24227.50671369 -.00006795  00000-0 -40942-3 0  9995,2 53868  53.2147 312.6613 0001250  96.7071 263.4063 15.08826038106477,6917.923,95.438,540.653,538.923,0.0
53868.0,STARLINK-4789,PAYLOAD,2024-08-15 13:35:50,15.08827466,8.19e-05,53.2168,307.9025,115.1546,244.9531,0.00013037,1.787e-05,0.0,0 STARLINK-4789,1 53868U 22114BC  24228.56655628  .00001787  00000-0  13037-3 0  9991,2 53868  53.2168 307.9025 0000819 115.1546 244.9531 15.08827466107175,6917.919,95.438,540.35,539.217,0.0
53868.0,STARLINK-4789,PAYLOAD,2024-08-16 10:15:51,15.08831701,0.0001111,53.2133,304.0386,79.0174,281.0943,0.00016582,2.352e-05,0.0,0 STARLINK-4789,1 53868U 22114BC  24229.42767739  .00002352  00000-0  16582-3 0  9991,2 53868  53.2133 304.0386 0001111  79.0174 281.0943 15.08831701107307,6917.906,95.438,540.539,539.002,0.0
53868.0,STARLINK-4789,PAYLOAD,2024-08-17 05:20:28,15.0882917,0.0001176,53.2149,300.4692,90.0227,270.09,-0.00034469,-5.768e-05,0.0,0 STARLINK-4789,1 53868U 22114BC  24230.22255604 -.00005768  00000-0 -34469-3 0  9994,2 53868  53.2149 300.4692 0001176  90.0227 270.0900 15.08829170106887,6917.913,95.438,540.592,538.965,0.0
53868.0,STARLINK-4789,PAYLOAD,2024-08-17 10:06:38,15.08823838,0.0001404,53.215,299.5752,102.011,258.104,-0.00033032,-5.539e-05,0.0,0 STARLINK-4789,1 53868U 22114BC  24230.42128005 -.00005539  00000-0 -33032-3 0  9991,2 53868  53.2150 299.5752 0001404 102.0110 258.1040 15.08823838107454,6917.93,95.439,540.766,538.824,0.0
53868.0,STARLINK-4789,PAYLOAD,2024-08-18 09:57:26,15.08832772,0.000147,53.2154,295.1148,106.3801,253.7353,0.00030698,4.6e-05,0.0,0 STARLINK-4789,1 53868U 22114BC  24231.41488595  .00004600  00000-0  30698-3 0  9995,2 53868  53.2154 295.1148 0001470 106.3801 253.7353 15.08832772107068,6917.902,95.438,540.784,538.751,0.0
53868.0,STARLINK-4789,PAYLOAD,2024-08-18 14:43:35,15.08836606,0.0001612,53.2165,294.2197,111.3705,248.746,0.00033681,5.076e-05,0.0,0 STARLINK-4789,1 53868U 22114BC  24231.61360486  .00005076  00000-0  33681-3 0  9998,2 53868  53.2165 294.2197 0001612 111.3705 248.7460 15.08836606107637,6917.891,95.438,540.871,538.641,0.0
53868.0,STARLINK-4789,PAYLOAD,2024-08-19 12:59:00,15.0882647,0.0001196,53.2154,290.054,69.6666,290.4454,0.00024639,3.634e-05,0.0,0 STARLINK-4789,1 53868U 22114BC  24232.54097560  .00003634  00000-0  24639-3 0  9992,2 53868  53.2154 290.0540 0001196  69.6666 290.4454 15.08826470107230,6917.922,95.438,540.614,538.959,0.0
53868.0,STARLINK-4789,PAYLOAD,2024-08-20 03:17:28,15.0883228,0.0001332,53.2142,287.3788,110.2313,249.8822,9.7805e-05,1.269e-05,0.0,0 STARLINK-4789,1 53868U 22114BC  24233.13713236  .00001269  00000-0  97805-4 0  9991,2 53868  53.2142 287.3788 0001332 110.2313 249.8822 15.08832280107327,6917.904,95.438,540.69,538.848,0.0
